[{"OBJECT_NAME":"STARLINK-35162","OBJECT_ID":"2025-207X","EPOCH":"2026-03-09T18:12:30.791808","MEAN_MOTION":15.05656295,"ECCENTRICITY":6.095e-5,"INCLINATION":97.6012,"RA_OF_ASC_NODE":138.7609,"ARG_OF_PERICENTER":68.3551,"MEAN_ANOMALY":291.774,"EPHEMERIS_TYPE":0,"CLASSIFICATION_TYPE":"U","NORAD_CAT_ID":65613,"ELEMENT_SET_NO":999,"REV_AT_EPOCH":2827,"BSTAR":1.0832951e-5,"MEAN_MOTION_DOT":9.6e-7,"MEAN_MOTION_DDOT":0},{"OBJECT_NAME":"CZ-6A DEB","OBJECT_ID":"2024-140ACM","EPOCH":"2026-03-09T13:49:36.534720","MEAN_MOTION":14.84353282,"ECCENTRICITY":0.0123748,"INCLINATION":89.0471,"RA_OF_ASC_NODE":283.7315,"ARG_OF_PERICENTER":156.1501,"MEAN_ANOMALY":204.5529,"EPHEMERIS_TYPE":0,"CLASSIFICATION_TYPE":"U","NORAD_CAT_ID":61821,"ELEMENT_SET_NO":999,"REV_AT_EPOCH":7938,"BSTAR":0.0013387,"MEAN_MOTION_DOT":0.00012918,"MEAN_MOTION_DDOT":0}]
